NORAD_CAT_ID,OBJECT_NAME,OBJECT_TYPE,EPOCH,MEAN_MOTION,ECCENTRICITY,INCLINATION,RA_OF_ASC_NODE,ARG_OF_PERICENTER,MEAN_ANOMALY,BSTAR,MEAN_MOTION_DOT,MEAN_MOTION_DDOT,TLE_LINE0,TLE_LINE1,TLE_LINE2,SEMIMAJOR_AXIS,PERIOD,APOGEE,PERIGEE,DECAYED
53539.0,STARLINK-4123,PAYLOAD,2023-02-11 10:03:05,15.08854505,0.0001518,53.216,72.1947,100.3324,259.7839,0.0007258,0.00011287,0.0,0 STARLINK-4123,1 53539U 22101N   23042.41881210  .00011287  00000-0  72580-3 0  9991,2 53539  53.2160  72.1947 0001518 100.3324 259.7839 15.08854505 26745,6917.836,95.437,540.751,538.651,0.0
53539.0,STARLINK-4123,PAYLOAD,2023-02-12 08:18:29,15.08847134,0.0001612,53.2163,68.0323,89.292,270.8256,0.00031068,4.661e-05,0.0,0 STARLINK-4123,1 53539U 22101N   23043.34617578  .00004661  00000-0  31068-3 0  9992,2 53539  53.2163  68.0323 0001612  89.2920 270.8256 15.08847134 26884,6917.859,95.437,540.839,538.608,0.0
53539.0,STARLINK-4123,PAYLOAD,2023-02-13 01:47:44,15.08835396,0.000126,53.2166,64.7607,96.9801,263.1335,0.00021078,3.068e-05,0.0,0 STARLINK-4123,1 53539U 22101N   23044.07482023  .00003068  00000-0  21078-3 0  9998,2 53539  53.2166  64.7607 0001260  96.9801 263.1335 15.08835396 26999,6917.894,95.438,540.631,538.888,0.0
53539.0,STARLINK-4123,PAYLOAD,2023-02-13 11:20:03,15.08860826,0.0001579,53.2167,62.9775,100.0443,260.0727,0.0017959,0.00028426,0.0,0 STARLINK-4123,1 53539U 22101N   23044.47225828  .00028426  00000-0  17959-2 0  9997,2 53539  53.2167  62.9775 0001579 100.0443 260.0727 15.08860826 27053,6917.817,95.436,540.774,538.589,0.0
53539.0,STARLINK-4123,PAYLOAD,2023-02-13 17:41:35,15.08844944,0.0002073,53.2175,61.786,95.3688,264.7541,0.0011131,0.00017474,0.0,0 STARLINK-4123,1 53539U 22101N   23044.73722194  .00017474  00000-0  11131-2 0  9991,2 53539  53.2175  61.7860 0002073  95.3688 264.7541 15.08844944 27093,6917.865,95.437,541.164,538.296,0.0
53539.0,STARLINK-4123,PAYLOAD,2023-02-14 09:35:27,15.08849932,0.000154,53.2181,58.8159,106.3895,253.7267,0.0012993,0.00020456,0.0,0 STARLINK-4123,1 53539U 22101N   23045.39962062  .00020456  00000-0  12993-2 0  9995,2 53539  53.2181  58.8159 0001540 106.3895 253.7267 15.08849932 27195,6917.85,95.437,540.78,538.65,0.0
53539.0,STARLINK-4123,PAYLOAD,2023-02-14 17:32:22,15.08840149,0.0001565,53.2177,57.3266,84.3645,275.7526,0.00091109,0.00014242,0.0,0 STARLINK-4123,1 53539U 22101N   23045.73082111  .00014242  00000-0  91109-3 0  9994,2 53539  53.2177  57.3266 0001565  84.3645 275.7526 15.08840149 27247,6917.88,95.438,540.828,538.662,0.0
53539.0,STARLINK-4123,PAYLOAD,2023-02-15 07:50:51,15.08841757,0.0001679,53.2184,54.6526,95.5329,264.5855,0.00015702,2.212e-05,0.0,0 STARLINK-4123,1 53539U 22101N   23046.32698222  .00002212  00000-0  15702-3 0  9995,2 53539  53.2184  54.6526 0001679  95.5329 264.5855 15.08841757 27330,6917.875,95.437,540.902,538.579,0.0
53539.0,STARLINK-4123,PAYLOAD,2023-02-15 11:01:37,15.08848926,0.000163,53.2176,54.0551,86.6174,273.5004,0.00027576,4.104e-05,0.0,0 STARLINK-4123,1 53539U 22101N   23046.45946040  .00004104  00000-0  27576-3 0  9997,2 53539  53.2176  54.0551 0001630  86.6174 273.5004 15.08848926 27352,6917.853,95.437,540.846,538.59,0.0
53539.0,STARLINK-4123,PAYLOAD,2023-02-15 17:23:09,15.08846307,0.0001386,53.217,52.8665,98.5598,261.5551,0.00028261,4.213e-05,0.0,0 STARLINK-4123,1 53539U 22101N   23046.72442051  .00004213  00000-0  28261-3 0  9993,2 53539  53.2170  52.8665 0001386  98.5598 261.5551 15.08846307 27397,6917.861,95.437,540.685,538.767,0.0
53539.0,STARLINK-4123,PAYLOAD,2023-02-16 09:17:00,15.08872687,0.0001284,53.2163,49.8924,104.8465,255.267,0.00073592,0.00011454,0.0,0 STARLINK-4123,1 53539U 22101N   23047.38680799  .00011454  00000-0  73592-3 0  9991,2 53539  53.2163  49.8924 0001284 104.8465 255.2670 15.08872687 27497,6917.78,95.435,540.534,538.757,0.0
53539.0,STARLINK-4123,PAYLOAD,2023-02-16 17:13:56,15.08842839,0.0002246,53.2178,48.4053,80.3691,279.7555,7.5207e-05,9.09e-06,0.0,0 STARLINK-4123,1 53539U 22101N   23047.71801955  .00000909  00000-0  75207-4 0  9996,2 53539  53.2178  48.4053 0002246  80.3691 279.7555 15.08842839 27544,6917.872,95.437,541.29,538.183,0.0
53539.0,STARLINK-4123,PAYLOAD,2023-02-17 01:10:52,15.08818825,9.03e-05,53.2167,46.9191,86.6951,273.4144,-0.00048048,-7.922e-05,0.0,0 STARLINK-4123,1 53539U 22101N   23048.04922410 -.00007922  00000-0 -48048-3 0  9999,2 53539  53.2167  46.9191 0000903  86.6951 273.4144 15.08818825 27592,6917.945,95.439,540.435,539.185,0.0
53539.0,STARLINK-4123,PAYLOAD,2023-02-17 05:57:02,15.08822645,0.0001017,53.2164,46.0262,94.6064,265.5045,-0.00035755,-5.971e-05,0.0,0 STARLINK-4123,1 53539U 22101N   23048.24794342 -.00005971  00000-0 -35755-3 0  9995,2 53539  53.2164  46.0262 0001017  94.6064 265.5045 15.08822645 27621,6917.933,95.439,540.502,539.095,0.0
53539.0,STARLINK-4123,PAYLOAD,2023-02-17 17:04:44,15.08823811,0.0001074,53.217,43.9417,93.4002,266.7113,-6.0624e-07,-2.97e-06,0.0,0 STARLINK-4123,1 53539U 22101N   23048.71162872 -.00000297  00000-0 -60624-6 0  9996,2 53539  53.2170  43.9417 0001074  93.4002 266.7113 15.08823811 27690,6917.93,95.439,540.538,539.052,0.0
53539.0,STARLINK-4123,PAYLOAD,2023-02-18 08:58:36,15.08837399,9.88e-05,53.216,40.9703,88.5855,271.525,0.00041143,6.266e-05,0.0,0 STARLINK-4123,1 53539U 22101N   23049.37403206  .00006266  00000-0  41143-3 0  9990,2 53539  53.2160  40.9703 0000988  88.5855 271.5250 15.08837399 27791,6917.888,95.438,540.437,539.07,0.0
53539.0,STARLINK-4123,PAYLOAD,2023-02-19 08:49:22,15.08867834,0.0001065,53.2158,36.5091,89.6035,270.5079,0.00086746,0.00013555,0.0,0 STARLINK-4123,1 53539U 22101N   23050.36762442  .00013555  00000-0  86746-3 0  9998,2 53539  53.2158  36.5091 0001065  89.6035 270.5079 15.08867834 27940,6917.795,95.436,540.397,538.924,0.0
53539.0,STARLINK-4123,PAYLOAD,2023-02-20 05:29:23,15.08855636,0.000108,53.2164,32.6437,93.7507,266.3608,0.00026789,3.98e-05,0.0,0 STARLINK-4123,1 53539U 22101N   23051.22874018  .00003980  00000-0  26789-3 0  9999,2 53539  53.2164  32.6437 0001080  93.7507 266.3608 15.08855636 28078,6917.833,95.437,540.445,538.95,0.0
53539.0,STARLINK-4123,PAYLOAD,2023-02-20 07:04:46,15.08855774,0.0001116,53.2167,32.3467,93.2457,266.8663,0.00027141,4.036e-05,0.0,0 STARLINK-4123,1 53539U 22101N   23051.29497971  .00004036  00000-0  27141-3 0  9991,2 53539  53.2167  32.3467 0001116  93.2457 266.8663 15.08855774 28080,6917.832,95.437,540.469,538.925,0.0
53539.0,STARLINK-4123,PAYLOAD,2023-02-21 02:09:24,15.08842386,0.000115,53.217,28.7771,97.9081,262.2042,0.00020993,3.055e-05,0.0,0 STARLINK-4123,1 53539U 22101N   23052.08986268  .00003055  00000-0  20993-3 0  9999,2 53539  53.2170  28.7771 0001150  97.9081 262.2042 15.08842386 28203,6917.873,95.437,540.534,538.943,0.0
53539.0,STARLINK-4123,PAYLOAD,2023-02-21 08:30:56,15.0884735,0.0001167,53.2176,27.5892,92.9938,267.1187,0.00044151,6.747e-05,0.0,0 STARLINK-4123,1 53539U 22101N   23052.35482184  .00006747  00000-0  44151-3 0  9990,2 53539  53.2176  27.5892 0001167  92.9938 267.1187 15.08847350 28248,6917.858,95.437,540.53,538.916,0.0
53539.0,STARLINK-4123,PAYLOAD,2023-02-21 14:52:29,15.08840113,0.0001439,53.2172,26.3984,76.556,283.5592,0.00017017,2.421e-05,0.0,0 STARLINK-4123,1 53539U 22101N   23052.61978444  .00002421  00000-0  17017-3 0  9994,2 53539  53.2172  26.3984 0001439  76.5560 283.5592 15.08840113 28280,6917.88,95.438,540.741,538.75,0.0
53539.0,STARLINK-4123,PAYLOAD,2023-02-22 05:10:57,15.08850554,0.0001269,53.2183,23.727,105.7249,254.3883,0.0002788,4.153e-05,0.0,0 STARLINK-4123,1 53539U 22101N   23053.21594010  .00004153  00000-0  27880-3 0  9997,2 53539  53.2183  23.7270 0001269 105.7249 254.3883 15.08850554 28370,6917.848,95.437,540.591,538.835,0.0
53539.0,STARLINK-4123,PAYLOAD,2023-02-22 21:04:49,15.08841413,9.63e-05,53.2171,20.7509,80.0097,280.1004,0.00015707,2.213e-05,0.0,0 STARLINK-4123,1 53539U 22101N   23053.87834526  .00002213  00000-0  15707-3 0  9998,2 53539  53.2171  20.7509 0000963  80.0097 280.1004 15.08841413 28472,6917.876,95.437,540.407,539.075,0.0
53539.0,STARLINK-4123,PAYLOAD,2023-02-23 01:50:58,15.08835044,0.0001056,53.2171,19.8593,89.856,270.2553,-3.5019e-05,-8.45e-06,0.0,0 STARLINK-4123,1 53539U 22101N   23054.07706694 -.00000845  00000-0 -35019-4 0  9995,2 53539  53.2171  19.8593 0001056  89.8560 270.2553 15.08835044 28506,6917.896,95.438,540.491,539.03,0.0
53539.0,STARLINK-4123,PAYLOAD,2023-02-23 05:01:44,15.08837525,0.0001035,53.2175,19.2642,88.3167,271.7943,5.4542e-05,5.8e-06,0.0,0 STARLINK-4123,1 53539U 22101N   23054.20954722  .00000580  00000-0  54542-4 0  9993,2 53539  53.2175  19.2642 0001035  88.3167 271.7943 15.08837525 28520,6917.888,95.438,540.469,539.037,0.0
53539.0,STARLINK-4123,PAYLOAD,2023-02-23 20:55:36,15.08839453,9.79e-05,53.2172,16.2898,87.5021,272.6084,0.00012487,1.7e-05,0.0,0 STARLINK-4123,1 53539U 22101N   23054.87194740  .00001700  00000-0  12487-3 0  9998,2 53539  53.2172  16.2898 0000979  87.5021 272.6084 15.08839453 28622,6917.882,95.438,540.424,539.07,0.0
53539.0,STARLINK-4123,PAYLOAD,2023-02-24 01:41:45,15.0884583,0.0001005,53.2173,15.3974,96.6911,263.4196,0.00019396,2.801e-05,0.0,0 STARLINK-4123,1 53539U 22101N   23055.07066400  .00002801  00000-0  19396-3 0  9991,2 53539  53.2173  15.3974 0001005  96.6911 263.4196 15.08845830 28659,6917.863,95.437,540.423,539.032,0.0
53539.0,STARLINK-4123,PAYLOAD,2023-02-24 06:27:54,15.08852167,0.000102,53.2171,14.5057,90.3885,269.7224,0.00020017,2.9e-05,0.0,0 STARLINK-4123,1 53539U 22101N   23055.26938047  .00002900  00000-0  20017-3 0  9999,2 53539  53.2171  14.5057 0001020  90.3885 269.7224 15.08852167 28683,6917.843,95.437,540.414,539.003,0.0
53539.0,STARLINK-4123,PAYLOAD,2023-02-24 20:46:23,15.08831999,9.43e-05,53.2171,11.8292,94.8701,265.2399,-1.6905e-05,-5.57e-06,0.0,0 STARLINK-4123,1 53539U 22101N   23055.86555022 -.00000557  00000-0 -16905-4 0  9993,2 53539  53.2171  11.8292 0000943  94.8701 265.2399 15.08831999 28777,6917.905,95.438,540.422,539.117,0.0
